     2.11           N: GPS NAV DATA                         RINEX VERSION / TYPE
CONVBIN 2.4.2                           20180507 145943 UTC PGM / RUN BY / DATE 
log: 140400.ubx                                             COMMENT             
format: u-blox                                              COMMENT             
                                                            END OF HEADER       
29 18  5  7 15 59 44.0  .453948508948E-03 -.636646291241E-11  .000000000000E+00
     .700000000000E+01 -.437500000000E+00  .398802326003E-08  .119216740247E+01
    -.856816768646E-07  .742421136238E-03  .509805977345E-05  .515370252228E+04
     .143984000000E+06 -.242143869400E-07  .291971542047E+01  .223517417908E-07
     .984107691007E+00  .294000000000E+03  .105914050474E+01 -.793283043423E-08
    -.321441960776E-10  .100000000000E+01  .200000000000E+04  .000000000000E+00
     .240000000000E+01  .000000000000E+00 -.102445483208E-07  .700000000000E+01
     .137076000000E+06  .400000000000E+01
25 18  5  7 16  0  0.0 -.581402331591E-03 -.591171556152E-11  .000000000000E+00
     .950000000000E+02  .408125000000E+02  .416231623432E-08  .247314784908E+01
     .196695327759E-05  .749034236651E-02  .749528408051E-05  .515365426826E+04
     .144000000000E+06 -.614672899246E-07  .181542509741E+01 -.126659870148E-06
     .974219508793E+00  .240437500000E+03  .852841024595E+00 -.779353891789E-08
    -.953611150304E-10  .100000000000E+01  .200000000000E+04  .000000000000E+00
     .240000000000E+01  .000000000000E+00  .605359673500E-08  .950000000000E+02
     .137076000000E+06  .400000000000E+01
31 18  5  7 16  0  0.0  .123296864331E-03 -.261479726760E-11  .000000000000E+00
     .550000000000E+02  .226250000000E+02  .458340520294E-08 -.293759918584E+01
     .123120844364E-05  .876115914434E-02  .759400427341E-05  .515365504265E+04
     .144000000000E+06 -.162050127983E-06  .794896259968E+00  .670552253723E-07
     .963568482095E+00  .236468750000E+03 -.131238380891E+00 -.786175604512E-08
    -.218580533328E-09  .100000000000E+01  .200000000000E+04  .000000000000E+00
     .240000000000E+01  .000000000000E+00 -.135041773319E-07  .550000000000E+02
     .137076000000E+06  .400000000000E+01
26 18  5  7 16  0  0.0 -.157219823450E-03  .127329258248E-10  .000000000000E+00
     .560000000000E+02  .471250000000E+02  .471233914498E-08  .193632211333E+01
     .263750553131E-05  .279785972089E-02  .723823904991E-05  .515365500069E+04
     .144000000000E+06 -.558793544769E-08  .179381674554E+01  .108033418655E-06
     .955767279795E+00  .239125000000E+03  .119390807163E+00 -.815998275318E-08
    -.106790162525E-09  .100000000000E+01  .200000000000E+04  .000000000000E+00
     .240000000000E+01  .000000000000E+00  .745058059692E-08  .560000000000E+02
     .137076000000E+06  .400000000000E+01
21 18  5  7 16  0  0.0 -.398074742407E-03  .477484718431E-11  .000000000000E+00
     .580000000000E+02 -.664062500000E+02  .464483633322E-08  .242295193477E+01
    -.352598726749E-05  .244346647523E-01  .541470944881E-05  .515371741104E+04
     .144000000000E+06  .279396772385E-06 -.242565783290E+01 -.106170773506E-06
     .943658165573E+00  .260031250000E+03 -.156183364069E+01 -.781175396234E-08
    -.135005623526E-09  .100000000000E+01  .200000000000E+04  .000000000000E+00
     .240000000000E+01  .000000000000E+00 -.102445483208E-07  .580000000000E+02
     .137076000000E+06  .400000000000E+01
 2 18  5  7 16  0  0.0  .122407916933E-03 -.112549969344E-10  .000000000000E+00
     .730000000000E+02 -.642500000000E+02  .466983737461E-08 -.171688226850E+01
    -.317953526974E-05  .178831031080E-01  .561587512493E-05  .515373261642E+04
     .144000000000E+06  .480562448502E-06 -.243266690895E+01  .178813934326E-06
     .950118764375E+00  .264093750000E+03 -.186144599859E+01 -.807033616189E-08
    -.778603860547E-10  .100000000000E+01  .200000000000E+04  .000000000000E+00
     .240000000000E+01  .000000000000E+00 -.204890966415E-07  .730000000000E+02
     .137076000000E+06  .400000000000E+01
12 18  5  7 16  0  0.0  .335145741701E-03 -.227373675443E-11  .000000000000E+00
     .560000000000E+02  .384687500000E+02  .391409160905E-08  .293803224762E+01
     .190734863281E-05  .720871554222E-02  .739470124245E-05  .515360080719E+04
     .144000000000E+06 -.316649675369E-07  .187496590420E+01 -.160187482834E-06
     .986575058880E+00  .245343750000E+03  .971704490752E+00 -.768710591310E-08
    -.117862052285E-09  .100000000000E+01  .200000000000E+04  .000000000000E+00
     .240000000000E+01  .000000000000E+00 -.125728547573E-07  .560000000000E+02
     .137076000000E+06  .400000000000E+01
 5 18  5  7 15 59 44.0 -.839307904243E-05  .682121026330E-12  .000000000000E+00
     .600000000000E+01 -.322187500000E+02  .469233831187E-08  .938495061001E+00
    -.154972076416E-05  .531968486030E-02  .887736678123E-05  .515369727516E+04
     .143984000000E+06 -.633299350739E-07 -.135049069194E+01  .521540641785E-07
     .947513378958E+00  .202437500000E+03  .608361451142E+00 -.808176520939E-08
     .160363822654E-09  .100000000000E+01  .200000000000E+04  .000000000000E+00
     .240000000000E+01  .000000000000E+00 -.111758708954E-07  .600000000000E+01
     .137106000000E+06  .400000000000E+01
 3 18  5  7 16  0  0.0  .589676201344E-04  .318323145621E-11  .000000000000E+00
     .720000000000E+02  .423125000000E+02  .546879922601E-08  .132900929942E+01
     .231154263020E-05  .985392974690E-02  .760704278946E-05  .515369939804E+04
     .144000000000E+06 -.193715095520E-06  .184027743940E+01  .102445483208E-06
     .979041991909E+00  .245968750000E+03  .921060522668E+00 -.800747640068E-08
    -.130362572982E-09  .100000000000E+01  .200000000000E+04  .000000000000E+00
     .340000000000E+01  .630000000000E+02 -.195577740669E-07  .720000000000E+02
     .137316000000E+06  .400000000000E+01
